{"type": "FeatureCollection", "features": [ {"type": "Feature", "properties": {"norad_id": 66757, "name": "TRANSPORTER-15 CV", "group": "last-30-days", "lat": -66.79712720247217, "lon": -129.27734025190338, "alt_km": 518.9369342490418, "timestamp": "2025-12-22T20:43:44.565482+00:00", "meta": {"OBJECT_NAME": "TRANSPORTER-15 CV", "OBJECT_ID": "2025-276CV", "EPOCH": "2025-12-22T11:43:49.645920", "MEAN_MOTION": 15.18062296, "ECCENTRICITY": 0.00016009, "INCLINATION": 97.4426, "RA_OF_ASC_NODE": 68.1097, "ARG_OF_PERICENTER": 159.3482, "MEAN_ANOMALY": 200.7817, "EPHEMERIS_TYPE": 0, "CLASSIFICATION_TYPE": "U", "NORAD_CAT_ID": 66757, "ELEMENT_SET_NO": 999, "REV_AT_EPOCH": 360, "BSTAR": 0.00057899728, "MEAN_MOTION_DOT": 0.00011736, "MEAN_MOTION_DDOT": 0}, "tle": {"line1": "1 66757U 25276CV  25356.48876905  .00011736  00000+0  57900-3 0  9992", "line2": "2 66757  97.4426  68.1097 0001600 159.3482 200.7817 15.18062296  3609"}}, "geometry": {"type": "Point", "coordinates": [-129.27734025190338, -66.79712720247217]}}, {"type": "Feature", "properties": {"norad_id": 66758, "name": "TRANSPORTER-15 CW", "group": "last-30-days", "lat": -68.18953654630269, "lon": -130.5889056511915, "alt_km": 519.224673892064, "timestamp": "2025-12-22T20:43:44.565492+00:00", "meta": {"OBJECT_NAME": "TRANSPORTER-15 CW", "OBJECT_ID": "2025-276CW", "EPOCH": "2025-12-22T11:43:26.232384", "MEAN_MOTION": 15.1806617, "ECCENTRICITY": 0.00012201, "INCLINATION": 97.4396, "RA_OF_ASC_NODE": 68.1004, "ARG_OF_PERICENTER": 141.2092, "MEAN_ANOMALY": 218.923, "EPHEMERIS_TYPE": 0, "CLASSIFICATION_TYPE": "U", "NORAD_CAT_ID": 66758, "ELEMENT_SET_NO": 999, "REV_AT_EPOCH": 360, "BSTAR": 0.0005590605, "MEAN_MOTION_DOT": 0.00011331, "MEAN_MOTION_DDOT": 0}, "tle": {"line1": "1 66758U 25276CW  25356.48849806  .00011331  00000+0  55906-3 0  9998", "line2": "2 66758  97.4396  68.1004 0001220 141.2092 218.9230 15.18066170  3604"}}, "geometry": {"type": "Point", "coordinates": [-130.5889056511915, -68.18953654630269]}}, {"type": "Feature", "properties": {"norad_id": 66759, "name": "TRANSPORTER-15 CX", "group": "last-30-days", "lat": -76.24487395651404, "lon": -143.78765246350562, "alt_km": 519.178542370978, "timestamp": "2025-12-22T20:43:44.565502+00:00", "meta": {"OBJECT_NAME": "TRANSPORTER-15 CX", "OBJECT_ID": "2025-276CX", "EPOCH": "2025-12-22T11:41:07.279584", "MEAN_MOTION": 15.18204163, "ECCENTRICITY": 0.0001776, "INCLINATION": 97.4382, "RA_OF_ASC_NODE": 68.0977, "ARG_OF_PERICENTER": 140.804, "MEAN_ANOMALY": 219.3323, "EPHEMERIS_TYPE": 0, "CLASSIFICATION_TYPE": "U", "NORAD_CAT_ID": 66759, "ELEMENT_SET_NO": 999, "REV_AT_EPOCH": 360, "BSTAR": 0.00056436896, "MEAN_MOTION_DOT": 0.00011485, "MEAN_MOTION_DDOT": 0}, "tle": {"line1": "1 66759U 25276CX  25356.48688981  .00011485  00000+0  56437-3 0  9994", "line2": "2 66759  97.4382  68.0977 0001776 140.8040 219.3323 15.18204163  3606"}}, "geometry": {"type": "Point", "coordinates": [-143.78765246350562, -76.24487395651404]}}, {"type": "Feature", "properties": {"norad_id": 66760, "name": "TRANSPORTER-15 CY", "group": "last-30-days", "lat": -77.9167826497581, "lon": -149.1464093605026, "alt_km": 519.495858092756, "timestamp": "2025-12-22T20:43:44.565513+00:00", "meta": {"OBJECT_NAME": "TRANSPORTER-15 CY", "OBJECT_ID": "2025-276CY", "EPOCH": "2025-12-22T11:40:34.176288", "MEAN_MOTION": 15.18185051, "ECCENTRICITY": 0.00014713, "INCLINATION": 97.4401, "RA_OF_ASC_NODE": 68.104, "ARG_OF_PERICENTER": 115.575, "MEAN_ANOMALY": 244.5636, "EPHEMERIS_TYPE": 0, "CLASSIFICATION_TYPE": "U", "NORAD_CAT_ID": 66760, "ELEMENT_SET_NO": 999, "REV_AT_EPOCH": 360, "BSTAR": 0.00057537368, "MEAN_MOTION_DOT": 0.00011704, "MEAN_MOTION_DDOT": 0}, "tle": {"line1": "1 66760U 25276CY  25356.48650667  .00011704  00000+0  57537-3 0  9992", "line2": "2 66760  97.4401  68.1040 0001471 115.5750 244.5636 15.18185051  3602"}}, "geometry": {"type": "Point", "coordinates": [-149.1464093605026, -77.9167826497581]}}, {"type": "Feature", "properties": {"norad_id": 66761, "name": "TRANSPORTER-15 CZ", "group": "last-30-days", "lat": -81.46826492327624, "lon": 129.06510223820197, "alt_km": 518.768175514987, "timestamp": "2025-12-22T20:43:44.565523+00:00", "meta": {"OBJECT_NAME": "TRANSPORTER-15 CZ", "OBJECT_ID": "2025-276CZ", "EPOCH": "2025-12-22T13:11:56.114592", "MEAN_MOTION": 15.18461354, "ECCENTRICITY": 0.00015683, "INCLINATION": 97.4399, "RA_OF_ASC_NODE": 68.1725, "ARG_OF_PERICENTER": 125.6408, "MEAN_ANOMALY": 234.4973, "EPHEMERIS_TYPE": 0, "CLASSIFICATION_TYPE": "U", "NORAD_CAT_ID": 66761, "ELEMENT_SET_NO": 999, "REV_AT_EPOCH": 361, "BSTAR": 0.00056800089, "MEAN_MOTION_DOT": 0.00011645, "MEAN_MOTION_DDOT": 0}, "tle": {"line1": "1 66761U 25276CZ  25356.54995503  .00011645  00000+0  56800-3 0  9997", "line2": "2 66761  97.4399  68.1725 0001568 125.6408 234.4973 15.18461354  3614"}}, "geometry": {"type": "Point", "coordinates": [129.06510223820197, -81.46826492327624]}}, {"type": "Feature", "properties": {"norad_id": 66762, "name": "HYDROGNSS-1", "group": "last-30-days", "lat": -8.05546260802585, "lon": -112.6115662937963, "alt_km": 517.9084904377041, "timestamp": "2025-12-22T20:43:44.565535+00:00", "meta": {"OBJECT_NAME": "HYDROGNSS-1", "OBJECT_ID": "2025-276DA", "EPOCH": "2025-12-22T13:34:18.774048", "MEAN_MOTION": 15.17299723, "ECCENTRICITY": 0.00010304, "INCLINATION": 97.4409, "RA_OF_ASC_NODE": 68.1554, "ARG_OF_PERICENTER": 266.873, "MEAN_ANOMALY": 93.2386, "EPHEMERIS_TYPE": 0, "CLASSIFICATION_TYPE": "U", "NORAD_CAT_ID": 66762, "ELEMENT_SET_NO": 999, "REV_AT_EPOCH": 361, "BSTAR": 0.00052189228, "MEAN_MOTION_DOT": 0.00010341, "MEAN_MOTION_DDOT": 0}, "tle": {"line1": "1 66762U 25276DA  25356.56549507  .00010341  00000+0  52189-3 0  9997", "line2": "2 66762  97.4409  68.1554 0001030 266.8730  93.2386 15.17299723  3614"}}, "geometry": {"type": "Point", "coordinates": [-112.6115662937963, -8.05546260802585]}}, {"type": "Feature", "properties": {"norad_id": 66763, "name": "HYDROGNSS-2", "group": "last-30-days", "lat": -18.968033207444044, "lon": -114.1183462522855, "alt_km": 518.1241378918248, "timestamp": "2025-12-22T20:43:44.565545+00:00", "meta": {"OBJECT_NAME": "HYDROGNSS-2", "OBJECT_ID": "2025-276DB", "EPOCH": "2025-12-22T10:21:31.448736", "MEAN_MOTION": 15.17420203, "ECCENTRICITY": 0.00013861, "INCLINATION": 97.4416, "RA_OF_ASC_NODE": 68.032, "ARG_OF_PERICENTER": 244.5475, "MEAN_ANOMALY": 115.5615, "EPHEMERIS_TYPE": 0, "CLASSIFICATION_TYPE": "U", "NORAD_CAT_ID": 66763, "ELEMENT_SET_NO": 999, "REV_AT_EPOCH": 359, "BSTAR": 0.00019983047, "MEAN_MOTION_DOT": 3.929e-05, "MEAN_MOTION_DDOT": 0}, "tle": {"line1": "1 66763U 25276DB  25356.43161399  .00003929  00000+0  19983-3 0  9992", "line2": "2 66763  97.4416  68.0320 0001386 244.5475 115.5615 15.17420203  3595"}}, "geometry": {"type": "Point", "coordinates": [-114.1183462522855, -18.968033207444044]}}, {"type": "Feature", "properties": {"norad_id": 66764, "name": "TRANSPORTER-15 DC", "group": "last-30-days", "lat": -42.61540443496579, "lon": -118.44523575923074, "alt_km": 518.2451782416274, "timestamp": "2025-12-22T20:43:44.565555+00:00", "meta": {"OBJECT_NAME": "TRANSPORTER-15 DC", "OBJECT_ID": "2025-276DC", "EPOCH": "2025-12-22T13:25:12.467712", "MEAN_MOTION": 15.17690147, "ECCENTRICITY": 0.00019843, "INCLINATION": 97.4408, "RA_OF_ASC_NODE": 68.1616, "ARG_OF_PERICENTER": 200.0724, "MEAN_ANOMALY": 160.0432, "EPHEMERIS_TYPE": 0, "CLASSIFICATION_TYPE": "U", "NORAD_CAT_ID": 66764, "ELEMENT_SET_NO": 999, "REV_AT_EPOCH": 361, "BSTAR": 0.00049591043, "MEAN_MOTION_DOT": 9.933e-05, "MEAN_MOTION_DDOT": 0}, "tle": {"line1": "1 66764U 25276DC  25356.55917208  .00009933  00000+0  49591-3 0  9993", "line2": "2 66764  97.4408  68.1616 0001984 200.0724 160.0432 15.17690147  3615"}}, "geometry": {"type": "Point", "coordinates": [-118.44523575923074, -42.61540443496579]}}, {"type": "Feature", "properties": {"norad_id": 66765, "name": "TRANSPORTER-15 DD", "group": "last-30-days", "lat": -66.43267045447793, "lon": 85.93426645295972, "alt_km": 518.2280225041086, "timestamp": "2025-12-22T20:43:44.565569+00:00", "meta": {"OBJECT_NAME": "TRANSPORTER-15 DD", "OBJECT_ID": "2025-276DD", "EPOCH": "2025-12-22T11:32:18.810528", "MEAN_MOTION": 15.18714275, "ECCENTRICITY": 0.00018511, "INCLINATION": 97.4425, "RA_OF_ASC_NODE": 68.119, "ARG_OF_PERICENTER": 119.4631, "MEAN_ANOMALY": 240.6788, "EPHEMERIS_TYPE": 0, "CLASSIFICATION_TYPE": "U", "NORAD_CAT_ID": 66765, "ELEMENT_SET_NO": 999, "REV_AT_EPOCH": 360, "BSTAR": 0.00069233261, "MEAN_MOTION_DOT": 0.00014318, "MEAN_MOTION_DDOT": 0}, "tle": {"line1": "1 66765U 25276DD  25356.48077327  .00014318  00000+0  69233-3 0  9993", "line2": "2 66765  97.4425  68.1190 0001851 119.4631 240.6788 15.18714275  3603"}}, "geometry": {"type": "Point", "coordinates": [85.93426645295972, -66.43267045447793]}}, {"type": "Feature", "properties": {"norad_id": 66766, "name": "TRANSPORTER-15 DE", "group": "last-30-days", "lat": -79.45580000508473, "lon": 113.03869713601345, "alt_km": 519.3361434934232, "timestamp": "2025-12-22T20:43:44.565580+00:00", "meta": {"OBJECT_NAME": "TRANSPORTER-15 DE", "OBJECT_ID": "2025-276DE", "EPOCH": "2025-12-22T11:36:08.739072", "MEAN_MOTION": 15.18405116, "ECCENTRICITY": 0.00019669, "INCLINATION": 97.4367, "RA_OF_ASC_NODE": 68.0981, "ARG_OF_PERICENTER": 90.3459, "MEAN_ANOMALY": 269.8001, "EPHEMERIS_TYPE": 0, "CLASSIFICATION_TYPE": "U", "NORAD_CAT_ID": 66766, "ELEMENT_SET_NO": 999, "REV_AT_EPOCH": 360, "BSTAR": 0.00054071228, "MEAN_MOTION_DOT": 0.00011064, "MEAN_MOTION_DDOT": 0}, "tle": {"line1": "1 66766U 25276DE  25356.48343448  .00011064  00000+0  54071-3 0  9993", "line2": "2 66766  97.4367  68.0981 0001966  90.3459 269.8001 15.18405116  3600"}}, "geometry": {"type": "Point", "coordinates": [113.03869713601345, -79.45580000508473]}}]}